[{"OBJECT_NAME":"AETHER-9","OBJECT_ID":"2026-004T","EPOCH":"2026-03-09T23:31:56.232480","MEAN_MOTION":14.87919538,"ECCENTRICITY":0.00064611,"INCLINATION":97.8002,"RA_OF_ASC_NODE":69.182,"ARG_OF_PERICENTER":98.1292,"MEAN_ANOMALY":262.0657,"EPHEMERIS_TYPE":0,"CLASSIFICATION_TYPE":"U","NORAD_CAT_ID":67380,"ELEMENT_SET_NO":999,"REV_AT_EPOCH":853,"BSTAR":0.00014996524,"MEAN_MOTION_DOT":1.32e-5,"MEAN_MOTION_DDOT":0},{"OBJECT_NAME":"SL-14 R\/B","OBJECT_ID":"1982-059B","EPOCH":"2026-03-09T21:50:13.047072","MEAN_MOTION":14.87168915,"ECCENTRICITY":0.0018414,"INCLINATION":82.5118,"RA_OF_ASC_NODE":20.8616,"ARG_OF_PERICENTER":25.4623,"MEAN_ANOMALY":334.7497,"EPHEMERIS_TYPE":0,"CLASSIFICATION_TYPE":"U","NORAD_CAT_ID":13272,"ELEMENT_SET_NO":999,"REV_AT_EPOCH":34397,"BSTAR":8.7882073e-5,"MEAN_MOTION_DOT":8.17e-6,"MEAN_MOTION_DDOT":0}]
